{"type":"FeatureCollection","features":[{"type":"Feature","id":1,"geometry":{"type":"Point","coordinates":[-119.20469166899994,40.78567324100004]},"properties":{"OBJECTID":1,"FID":0,"NAME":"1200 Promenade","TYPE":"CPN"}},{"type":"Feature","id":2,"geometry":{"type":"Point","coordinates":[-119.19967544699995,40.77700777200005]},"properties":{"OBJECTID":2,"FID":1,"NAME":"3 & B Plaza","TYPE":"CPN"}},{"type":"Feature","id":3,"geometry":{"type":"Point","coordinates":[-119.20150089099997,40.77839550700003]},"properties":{"OBJECTID":3,"FID":2,"NAME":"300 Portal","TYPE":"CPN"}},{"type":"Feature","id":4,"geometry":{"type":"Point","coordinates":[-119.20471764999996,40.78084073800005]},"properties":{"OBJECTID":4,"FID":3,"NAME":"300 Promenade","TYPE":"CPN"}},{"type":"Feature","id":5,"geometry":{"type":"Point","coordinates":[-119.20788312599996,40.77000352300007]},"properties":{"OBJECTID":5,"FID":4,"NAME":"430 & G Plaza","TYPE":"CPN"}},{"type":"Feature","id":6,"geometry":{"type":"Point","coordinates":[-119.20788359299996,40.77638580100006]},"properties":{"OBJECTID":6,"FID":5,"NAME":"430 Portal","TYPE":"CPN"}},{"type":"Feature","id":7,"geometry":{"type":"Point","coordinates":[-119.21361143899998,40.77889310300003]},"properties":{"OBJECTID":7,"FID":6,"NAME":"600 Portal","TYPE":"CPN"}},{"type":"Feature","id":8,"geometry":{"type":"Point","coordinates":[-119.21074770799999,40.781069950000074]},"properties":{"OBJECTID":8,"FID":7,"NAME":"600 Promenade","TYPE":"CPN"}},{"type":"Feature","id":9,"geometry":{"type":"Point","coordinates":[-119.22530772999994,40.78324539500005]},"properties":{"OBJECTID":9,"FID":8,"NAME":"730 & G Plaza","TYPE":"CPN"}},{"type":"Feature","id":10,"geometry":{"type":"Point","coordinates":[-119.21691124599994,40.78324671300004]},"properties":{"OBJECTID":10,"FID":9,"NAME":"730 Portal","TYPE":"CPN"}},{"type":"Feature","id":11,"geometry":{"type":"Point","coordinates":[-119.21609428199997,40.78948653200007]},"properties":{"OBJECTID":11,"FID":10,"NAME":"9 & B Plaza","TYPE":"CPN"}},{"type":"Feature","id":12,"geometry":{"type":"Point","coordinates":[-119.21426803099996,40.78809886200003]},"properties":{"OBJECTID":12,"FID":11,"NAME":"900 Portal","TYPE":"CPN"}},{"type":"Feature","id":13,"geometry":{"type":"Point","coordinates":[-119.21107563399994,40.785672962000035]},"properties":{"OBJECTID":13,"FID":12,"NAME":"900 Promenade","TYPE":"CPN"}},{"type":"Feature","id":14,"geometry":{"type":"Point","coordinates":[-119.21010212799996,40.760545282000066]},"properties":{"OBJECTID":14,"FID":13,"NAME":"Airport","TYPE":"CPN"}},{"type":"Feature","id":15,"geometry":{"type":"Point","coordinates":[-119.21561156099995,40.777372264000064]},"properties":{"OBJECTID":15,"FID":14,"NAME":"Center Camp Plaza","TYPE":"CPN"}},{"type":"Feature","id":16,"geometry":{"type":"Point","coordinates":[-119.21228559699995,40.776573248000034]},"properties":{"OBJECTID":16,"FID":15,"NAME":"HEaT","TYPE":"CPN"}},{"type":"Feature","id":17,"geometry":{"type":"Point","coordinates":[-119.21631646699996,40.77930392600007]},"properties":{"OBJECTID":17,"FID":16,"NAME":"Media Mecca","TYPE":"CPN"}},{"type":"Feature","id":18,"geometry":{"type":"Point","coordinates":[-119.21164195199998,40.77634967800003]},"properties":{"OBJECTID":18,"FID":17,"NAME":"Rampart","TYPE":"CPN"}},{"type":"Feature","id":19,"geometry":{"type":"Point","coordinates":[-119.19898126499999,40.776197815000046]},"properties":{"OBJECTID":19,"FID":19,"NAME":"ESD Station 3","TYPE":"CPN"}},{"type":"Feature","id":20,"geometry":{"type":"Point","coordinates":[-119.21678794199994,40.79029558600007]},"properties":{"OBJECTID":20,"FID":20,"NAME":"ESD Station 9","TYPE":"CPN"}},{"type":"Feature","id":21,"geometry":{"type":"Point","coordinates":[-119.21304520599995,40.77786411400007]},"properties":{"OBJECTID":21,"FID":21,"NAME":"Playa Info","TYPE":"CPN"}},{"type":"Feature","id":22,"geometry":{"type":"Point","coordinates":[-119.22540326899997,40.769913047000045]},"properties":{"OBJECTID":22,"FID":23,"NAME":"Greeters","TYPE":"CPN"}},{"type":"Feature","id":23,"geometry":{"type":"Point","coordinates":[-119.22140764699998,40.80352097200006]},"properties":{"OBJECTID":23,"FID":24,"NAME":"Point 2","TYPE":"CPN"}},{"type":"Feature","id":24,"geometry":{"type":"Point","coordinates":[-119.18667212199995,40.799288396000065]},"properties":{"OBJECTID":24,"FID":25,"NAME":"Point 3","TYPE":"CPN"}},{"type":"Feature","id":25,"geometry":{"type":"Point","coordinates":[-119.18123966399997,40.77288403700004]},"properties":{"OBJECTID":25,"FID":26,"NAME":"Point 4","TYPE":"CPN"}},{"type":"Feature","id":26,"geometry":{"type":"Point","coordinates":[-119.21258152999997,40.76078824600006]},"properties":{"OBJECTID":26,"FID":27,"NAME":"Point 5","TYPE":"CPN"}},{"type":"Feature","id":27,"geometry":{"type":"Point","coordinates":[-119.195564978,40.77388260300006]},"properties":{"OBJECTID":27,"FID":28,"NAME":"3 & G Plaza","TYPE":"CPN"}},{"type":"Feature","id":28,"geometry":{"type":"Point","coordinates":[-119.22020667399994,40.79261096100004]},"properties":{"OBJECTID":28,"FID":29,"NAME":"9 & G Plaza","TYPE":"CPN"}},{"type":"Feature","id":29,"geometry":{"type":"Point","coordinates":[-119.22020267499994,40.77388092800004]},"properties":{"OBJECTID":29,"FID":30,"NAME":"6 & G Plaza","TYPE":"CPN"}},{"type":"Feature","id":30,"geometry":{"type":"Point","coordinates":[-119.21140017999994,40.77679346600007]},"properties":{"OBJECTID":30,"FID":31,"NAME":"ESD Station 6","TYPE":"CPN"}},{"type":"Feature","id":31,"geometry":{"type":"Point","coordinates":[-119.21561156099995,40.777372264000064]},"properties":{"OBJECTID":31,"FID":32,"NAME":"Center Camp","TYPE":"CPN"}},{"type":"Feature","id":32,"geometry":{"type":"Point","coordinates":[-119.20788409599999,40.783247448000054]},"properties":{"OBJECTID":32,"FID":33,"NAME":"The Man","TYPE":"CPN"}},{"type":"Feature","id":33,"geometry":{"type":"Point","coordinates":[-119.201499636,40.78809942300006]},"properties":{"OBJECTID":33,"FID":34,"NAME":"The Temple","TYPE":"CPN"}},{"type":"Feature","id":34,"geometry":{"type":"Point","coordinates":[-119.19861233699999,40.776482660000056]},"properties":{"OBJECTID":34,"FID":36,"NAME":"Ranger Station Berlin","TYPE":"CPN"}},{"type":"Feature","id":35,"geometry":{"type":"Point","coordinates":[-119.21722282099995,40.79006203500006]},"properties":{"OBJECTID":35,"FID":37,"NAME":"Ranger Station Tokyo","TYPE":"CPN"}},{"type":"Feature","id":36,"geometry":{"type":"Point","coordinates":[-119.21637985099994,40.77992492200008]},"properties":{"OBJECTID":36,"FID":38,"NAME":"Ranger HQ","TYPE":"CPN"}},{"type":"Feature","id":37,"geometry":{"type":"Point","coordinates":[-119.21921726299996,40.79810648100005]},"properties":{"OBJECTID":37,"FID":39,"NAME":"Hell Station","TYPE":"CPN"}},{"type":"Feature","id":38,"geometry":{"type":"Point","coordinates":[-119.22083140199999,40.792716950000056]},"properties":{"OBJECTID":38,"FID":40,"NAME":"Ice Nine Arctica","TYPE":"CPN"}},{"type":"Feature","id":39,"geometry":{"type":"Point","coordinates":[-119.21676303799995,40.77827790500004]},"properties":{"OBJECTID":39,"FID":41,"NAME":"Arctica Center Camp","TYPE":"CPN"}},{"type":"Feature","id":40,"geometry":{"type":"Point","coordinates":[-119.19491010999997,40.77376366800007]},"properties":{"OBJECTID":40,"FID":42,"NAME":"Ice Cubed Arctica 3","TYPE":"CPN"}},{"type":"Feature","id":41,"geometry":{"type":"Point","coordinates":[-119.21246267199996,40.77896144400006]},"properties":{"OBJECTID":41,"FID":43,"NAME":"Department of Mutant Vehicles (DMV)","TYPE":"CPN"}},{"type":"Feature","id":42,"geometry":{"type":"Point","coordinates":[-119.20376686899999,40.79920382300003]},"properties":{"OBJECTID":42,"FID":44,"NAME":"Deep-Playa Music Zone (DMZ)","TYPE":"CPN"}},{"type":"Feature","id":43,"geometry":{"type":"Point","coordinates":[-119.23741804699995,40.77971035400003]},"properties":{"OBJECTID":43,"FID":45,"NAME":"Point 1","TYPE":"CPN"}},{"type":"Feature","id":44,"geometry":{"type":"Point","coordinates":[-119.20788344999994,40.774422505000075]},"properties":{"OBJECTID":44,"FID":46,"NAME":"430 & B Plaza","TYPE":"CPN"}},{"type":"Feature","id":45,"geometry":{"type":"Point","coordinates":[-119.21949414699998,40.783246373000054]},"properties":{"OBJECTID":45,"FID":47,"NAME":"730 & B Plaza","TYPE":"CPN"}},{"type":"Feature","id":47,"geometry":{"type":"Point","coordinates":[-119.21096083099997,40.77666457300006]},"properties":{"OBJECTID":47,"FID":90,"NAME":"BLM LE Substation","TYPE":"CPN"}},{"type":"Feature","id":52,"geometry":{"type":"Point","coordinates":[-119.22271946799998,40.77335492200007]},"properties":{"OBJECTID":52,"FID":99,"NAME":"Burner Express Bus Depot","TYPE":"CPN"}},{"type":"Feature","id":54,"geometry":{"type":"Point","coordinates":[-119.20165970799997,40.76605138100007]},"properties":{"OBJECTID":54,"FID":102,"NAME":"Walk-In Camp","TYPE":"CPN"}},{"type":"Feature","id":56,"geometry":{"type":"Point","coordinates":[-119.23901284299995,40.76505476700004]},"properties":{"OBJECTID":56,"FID":110,"NAME":"Box Office","TYPE":"CPN"}},{"type":"Feature","id":57,"geometry":{"type":"Point","coordinates":[-119.23769349399998,40.76508746400003]},"properties":{"OBJECTID":57,"FID":112,"NAME":"Gate Actual","TYPE":"CPN"}},{"type":"Feature","id":58,"geometry":{"type":"Point","coordinates":[-119.24078058599997,40.76493193600004]},"properties":{"OBJECTID":58,"FID":117,"NAME":"Will Call Lot","TYPE":"CPN"}},{"type":"Feature","id":59,"geometry":{"type":"Point","coordinates":[-119.23932879299997,40.76430864400004]},"properties":{"OBJECTID":59,"FID":121,"NAME":"D Lot","TYPE":"CPN"}},{"type":"Feature","id":60,"geometry":{"type":"Point","coordinates":[-119.22793799399994,40.76756691300005]},"properties":{"OBJECTID":60,"FID":133,"NAME":"Census Checkpoint","TYPE":"CPN"}},{"type":"Feature","id":61,"geometry":{"type":"Point","coordinates":[-119.21486065999994,40.779380927000034]},"properties":{"OBJECTID":61,"FID":48,"NAME":"Artery","TYPE":"CPN"}},{"type":"Feature","id":62,"geometry":{"type":"Point","coordinates":[-119.21454512899999,40.773927429000025]},"properties":{"OBJECTID":62,"FID":49,"NAME":"Yellow Bike Project","TYPE":"CPN"}},{"type":"Feature","id":63,"geometry":{"type":"Point","coordinates":[-119.21302995699995,40.77695070600004]},"properties":{"OBJECTID":63,"FID":134,"NAME":"Recycle Camp","TYPE":"CPN"}},{"type":"Feature","id":64,"geometry":{"type":"Point","coordinates":[-119.22397821799996,40.773695632000056]},"properties":{"OBJECTID":64,"FID":135,"NAME":"Arctica Outpost","TYPE":"CPN"}},{"type":"Feature","id":75,"geometry":{"type":"Point","coordinates":[-119.21133013999997,40.79167623600006]},"properties":{"OBJECTID":75,"FID":146,"NAME":"10 & B Plaza","TYPE":"CPN"}},{"type":"Feature","id":76,"geometry":{"type":"Point","coordinates":[-119.19679557199998,40.78062786800007]},"properties":{"OBJECTID":76,"FID":147,"NAME":"2 & B Plaza","TYPE":"CPN"}}]}
