{"type":"FeatureCollection","features":[{"type":"Feature","id":1,"geometry":{"type":"Polygon","coordinates":[[[-119.20665020556336,40.798589204113206],[-119.20629469026294,40.7985703019362],[-119.20593946158786,40.79854661629616],[-119.20558458389678,40.79851815148432],[-119.20523012148475,40.798484912657806],[-119.20463162658388,40.79841776173394],[-119.20421694312547,40.798363033391595],[-119.20380319166865,40.7983016551047],[-119.2030859969428,40.798178981671185],[-119.20267917601329,40.79810008200171],[-119.20227370107713,40.79801453375406],[-119.20186968078289,40.79792235985123],[-119.20146722338933,40.79782358499157],[-119.20066491773512,40.799645574448796],[-119.2011060763072,40.7997535305374],[-119.20154886081366,40.79985461111726],[-119.20199316410572,40.79994879172805],[-119.20243887866708,40.80003604957912],[-119.20288589663993,40.800116363555084],[-119.20333410985103,40.80018971422088],[-119.20378340983794,40.800256083826476],[-119.2042336878752,40.8003154563112],[-119.20468483500069,40.80036781730759],[-119.20513674204199,40.80041315414488],[-119.20558929964275,40.80045145585208],[-119.20604239828924,40.800482713160605],[-119.20649592833676,40.80050691850656],[-119.20665020556336,40.798589204113206]]]},"properties":{"OBJECTID":1,"Shape_Length":4515.394079691052,"Shape_Area":1090588.3192843609}}]}
