{"type":"FeatureCollection","features":[{"type":"Feature","id":1,"geometry":{"type":"Polygon","coordinates":[[[-119.19556724238139,40.77415776763607],[-119.19560262763906,40.77415644987845],[-119.19563767260092,40.774152501749164],[-119.1956720397608,40.77414596127134],[-119.19570539814046,40.77413689143406],[-119.19573742647725,40.77412537958581],[-119.19576781631808,40.774111536593246],[-119.19579627499023,40.774095495773324],[-119.19582252841991,40.774077411609404],[-119.19584632377182,40.77405745826345],[-119.19586743188407,40.77403582789862],[-119.1958856494753,40.77401272882872],[-119.19590080110207,40.773988383511764],[-119.19591274084861,40.77396302640771],[-119.19592135373186,40.7739369017203],[-119.19592655680877,40.77391026104537],[-119.19592829997485,40.77388336094754],[-119.19592656644667,40.773856460489675],[-119.19592137292315,40.773829818737745],[-119.19591276942484,40.77380369226587],[-119.1959008388118,40.77377833268559],[-119.19588569598564,40.77375398422246],[-119.19586748678266,40.773730881364315],[-119.19584638656946,40.77370924660293],[-119.1958225985538,40.77368928829131],[-119.19579635182772,40.77367119863741],[-119.19576789916114,40.77365515185287],[-119.19573751456757,40.77364130247553],[-119.19570549066529,40.77362978388106],[-119.19567213585927,40.77362070699858],[-119.1956377713714,40.77361415924244],[-119.19560272814665,40.773610203670394],[-119.19556734366648,40.773608878376294],[-119.19553195869865,40.77361019612325],[-119.19549691401554,40.773614144220836],[-119.19546254711254,40.77362068464716],[-119.19542918895803,40.77362975441509],[-119.19539716080612,40.77364126617881],[-119.19536677110264,40.7736551090749],[-119.19533831251518,40.77367114979016],[-119.19531205911417,40.77368923384521],[-119.19528826373387,40.77370918708228],[-119.1952671555372,40.7737308173424],[-119.19524893780881,40.77375391631577],[-119.19523378599742,40.77377826154811],[-119.19522184602583,40.7738036185827],[-119.19521323288583,40.77382974321844],[-119.19520802953028,40.773856383861585],[-119.19520628607442,40.77388328394859],[-119.19520801931283,40.773910184417126],[-119.1952132125576,40.77393682620074],[-119.19522181579902,40.773962952724105],[-119.19523374618687,40.77398831237377],[-119.19524888882822,40.77401266092141],[-119.19526709789379,40.77403576387601],[-119.19528819802234,40.77405739874208],[-119.19531198600927,40.774077357162554],[-119.19533823276376,40.774095446925344],[-119.19536668551473,40.7741114938146],[-119.19539707024546,40.774125343288475],[-119.19542909433241,40.77413686196756],[-119.19546244936343,40.7741459389195],[-119.1954968141081,40.77415248672728],[-119.19553185761146,40.774156442331154],[-119.19556724238139,40.77415776763607]]]},"properties":{"OBJECTID":1,"name":"3:00 & G Plaza","FID":1}},{"type":"Feature","id":2,"geometry":{"type":"Polygon","coordinates":[[[-119.20788409440638,40.770279943773204],[-119.2079194773683,40.7702786222379],[-119.2079545195684,40.77027467036515],[-119.20798888352715,40.77026812621407],[-119.20802223829708,40.77025905280915],[-119.20805426265036,40.7702475375333],[-119.20808464817223,40.77023369128609],[-119.20811310223161,40.77021764741584],[-119.20813935079903,40.770199560435316],[-119.20816314108612,40.77017960453358],[-119.2081842439798,40.77015797189846],[-119.20820245624884,40.77013487086555],[-119.20821760250114,40.7701105239118],[-119.20822953687271,40.770085165512945],[-119.20823814443219,40.77005903988519],[-119.20824334228784,40.77003239863339],[-119.20824508038544,40.77000549832777],[-119.20824334199033,40.769978598033184],[-119.20823814384843,40.769951956813976],[-119.20822953602463,40.76992583123923],[-119.20821760142074,40.769900472911765],[-119.20820245497671,40.76987612604512],[-119.20818424256379,40.76985302511169],[-119.20816313957938,40.769831392584756],[-119.20813934925802,40.76981143679586],[-119.20811310071393,40.76979334992858],[-119.20808464673443,40.76977730616772],[-119.20805426134582,40.76976346002203],[-119.20802223717396,40.769751944836045],[-119.20798888262647,40.7697428715061],[-119.20795451892262,40.76973632741229],[-119.207919477,40.76973237557711],[-119.20788409432745,40.769731054058404],[-119.2078487116553,40.76973237558299],[-119.2078136697338,40.769736327424006],[-119.20777930603187,40.76974287152351],[-119.20774595148696,40.769751944859],[-119.20771392731841,40.76976346005032],[-119.20768354193378,40.76977730620105],[-119.20765508795893,40.769793349966626],[-119.20762883942002,40.76981143683829],[-119.20760504910442,40.769831392631154],[-119.20758394612622,40.769853025161595],[-119.20756573371995,40.769876126098055],[-119.2075505872829,40.769900472967194],[-119.20753865268631,40.76992583129667],[-119.20753004487001,40.76995195687284],[-119.20752484673578,40.769978598092905],[-119.20752310834841,40.77000549838779],[-119.20752484645377,40.77003239869311],[-119.20753004431708,40.77005903994406],[-119.20753865188406,40.77008516557038],[-119.20755058626291,40.77011052396723],[-119.20756573252223,40.77013487091846],[-119.20758394479792,40.77015797194836],[-119.20760504769783,40.77017960457996],[-119.20762883799061,40.77019956047774],[-119.20765508656328,40.77021764745391],[-119.20768354062723,40.770233691319426],[-119.20771392615312,40.770247537561595],[-119.20774595050969,40.770259052832124],[-119.20777930528224,40.77026812623148],[-119.20781366924287,40.77027467037686],[-119.20784871144409,40.77027862224378],[-119.20788409440638,40.770279943773204]]]},"properties":{"OBJECTID":2,"name":"4:30 & G Plaza","FID":3}},{"type":"Feature","id":3,"geometry":{"type":"Polygon","coordinates":[[[-119.22020094754606,40.774157765588264],[-119.22023633231343,40.77415644027755],[-119.22027137581351,40.774152484668086],[-119.22030574055417,40.77414593685501],[-119.22033909558053,40.77413685989807],[-119.22037111966216,40.77412534121438],[-119.22040150438704,40.774111491736285],[-119.22042995713163,40.7740954448433],[-119.2204562038793,40.77407735507726],[-119.22047999185902,40.77405739665405],[-119.22050109198007,40.77403576178579],[-119.2205193010379,40.77401265882959],[-119.22053444367128,40.77398831028091],[-119.22054637405108,40.773962950630846],[-119.22055497728445,40.77393682410768],[-119.22056017052125,40.77391018232482],[-119.2205619037518,40.77388328185767],[-119.22056016028831,40.7738563817726],[-119.22055495692541,40.773829741131955],[-119.22054634377841,40.77380361649926],[-119.22053440380029,40.773778259468216],[-119.22051925198281,40.77375391423989],[-119.22050103424891,40.77373081527096],[-119.22047992604729,40.77370918501569],[-119.22045613066274,40.77368923178381],[-119.22042987725813,40.77367114773424],[-119.22040141866778,40.77365510702471],[-119.2203710289622,40.77364126413451],[-119.22033900080893,40.77362975237684],[-119.22030564265391,40.77362068261501],[-119.22027127575116,40.7736141421948],[-119.22023623106905,40.7736101941033],[-119.220200846103,40.77360887636229],[-119.2201654616254,40.7736102016622],[-119.22013041840397,40.773614157239855],[-119.22009605392006,40.77362070500129],[-119.22006269911874,40.773629781888744],[-119.22003067522174,40.77364130048785],[-119.220000290634,40.773655149869406],[-119.2199718379738,40.773671196657666],[-119.21994559125456,40.773689286314834],[-119.21992180324611,40.77370924462916],[-119.21990070304044,40.773730879392744],[-119.21988249384523,40.77375398225249],[-119.21986735102698,40.77377833071663],[-119.21985542042198,40.77380369029734],[-119.21984681693172,40.77382981676902],[-119.21984162341619,40.773856458520186],[-119.21983988989588,40.77388335897669],[-119.21984163306958,40.773910259072544],[-119.21984683615382,40.773936899745024],[-119.21985544904406,40.77396302442937],[-119.21986738879716,40.77398838152988],[-119.21988254043,40.77401272684281],[-119.21990075802674,40.774035825908264],[-119.21992186614398,40.774057456268224],[-119.2199456615001,40.774077409609006],[-119.2199719149334,40.77409549376746],[-119.22000037360843,40.77411153458167],[-119.22003076345136,40.77412537756833],[-119.2200627917895,40.77413688941052],[-119.22009615016972,40.7741459592417],[-119.22013051732937,40.7741524997134],[-119.22016556229019,40.77415644783661],[-119.22020094754606,40.774157765588264]]]},"properties":{"OBJECTID":3,"name":"6:00 & G Plaza","FID":4}},{"type":"Feature","id":4,"geometry":{"type":"Polygon","coordinates":[[[-119.2253052020831,40.7835205760165],[-119.22534059171798,40.78351924914187],[-119.22537563983614,40.783515291987825],[-119.22541000890105,40.78350874266442],[-119.22544336791611,40.78349966424589],[-119.22547539561256,40.78348814416346],[-119.22550578354348,40.78347429336298],[-119.22553423905455,40.78345824523664],[-119.22556048810239,40.783440154338194],[-119.22558427789394,40.783420194894425],[-119.22560537932092,40.78339855912725],[-119.22562358916623,40.78337545540248],[-119.22563873206114,40.78335110622297],[-119.22565066217392,40.783325746085865],[-119.22565926461431,40.78329961922414],[-119.22566445653983,40.78327297725449],[-119.22566618795341,40.7832460767541],[-119.22566444218472,40.78321917678968],[-119.22565923605072,40.7831925364224],[-119.22565061969328,40.78316641221311],[-119.22563867609635,40.78314105575148],[-119.22562352028655,40.78311671123314],[-119.22560529822526,40.78309361310781],[-119.22558418540285,40.78307198382175],[-119.2255603851486,40.78305203167524],[-119.22553412667229,40.783033948816836],[-119.2255056628571,40.78301790939276],[-119.22547526782385,40.783004067869925],[-119.22544323429138,40.782992557548354],[-119.22540987075737,40.782983489277555],[-119.22537549852774,40.78297695038893],[-119.22534044862213,40.78297300385478],[-119.22530505858622,40.78297168768197],[-119.2252696692413,40.782973014545775],[-119.22523462140191,40.782976971667956],[-119.22520025259384,40.782983520939695],[-119.22516689380386,40.78299259928868],[-119.2251348662921,40.78300411928647],[-119.22510447849831,40.78301796999037],[-119.22507602307162,40.78303401801194],[-119.22504977405215,40.78305210880147],[-119.22502598423186,40.78307206813633],[-119.22500488272013,40.7830937037988],[-119.2249866727373,40.7831168074271],[-119.22497152965741,40.78314115652207],[-119.2249595993193,40.78316651658983],[-119.22495099662187,40.78319264340006],[-119.22494580441749,40.78321928533804],[-119.22494407271397,40.78324618582779],[-119.22494581819271,40.783273085803046],[-119.224951024048,40.7832997262022],[-119.22495964014857,40.78332585046316],[-119.22497158352041,40.7833512069943],[-119.22498673914552,40.783375551597324],[-119.22500496106966,40.783398649819205],[-119.22502607380768,40.78342027921003],[-119.2250498740336,40.783440231465455],[-119.2250761325386,40.78345831443278],[-119.22510459643857,40.78347435396157],[-119.22513499160932,40.78348819558088],[-119.2251670253268,40.78349970598696],[-119.22520038908613,40.78350877432711],[-119.22523476157276,40.783515313267245],[-119.22526981175727,40.783519259833064],[-119.2253052020831,40.7835205760165]]]},"properties":{"OBJECTID":4,"name":"7:30 & G Plaza","FID":5}},{"type":"Feature","id":5,"geometry":{"type":"Polygon","coordinates":[[[-119.22020441024736,40.79288468704007],[-119.22023980495472,40.79288336173117],[-119.22027485829858,40.79287940613208],[-119.22030923269209,40.7928728583379],[-119.22034259708728,40.792863781408144],[-119.22037463016356,40.792852262759645],[-119.22040502342227,40.79283841332449],[-119.22043348415774,40.79282236648171],[-119.22045973827628,40.79280427677268],[-119.22048353293594,40.79278431841273],[-119.2205046389816,40.7927626836134],[-119.22052285315169,40.7927395807311],[-119.22053800003586,40.792715232260626],[-119.2205499337639,40.79268987269226],[-119.22055853941077,40.79266374625351],[-119.22056373410308,40.792637104557016],[-119.22056546781714,40.79261020417733],[-119.22056372386048,40.79258330417998],[-119.22055851903258,40.792556663626456],[-119.22054990346274,40.792530539079415],[-119.22053796012734,40.7925051821318],[-119.22052280405047,40.792480836983856],[-119.22050458119608,40.79245773809146],[-119.22048346706225,40.79243610790813],[-119.22045966499077,40.79241615474293],[-119.22043340420906,40.792398070754125],[-119.22040493762239,40.79238203009886],[-119.22037453937827,40.79236818725589],[-119.2203425022265,40.79235667553801],[-119.22030913469969,40.7923476058081],[-119.2202747581421,40.79234106541161],[-119.22023970361505,40.79233711733542],[-119.22020430870882,40.79233579960122],[-119.2201689142915,40.79233712489932],[-119.22013386122653,40.79234108046652],[-119.22009948709004,40.79234762820906],[-119.22006612292006,40.7923567050693],[-119.22003409002858,40.792368223633126],[-119.22000369690714,40.79238207297169],[-119.21997523625619,40.792398119709695],[-119.21994898216609,40.792416209309756],[-119.21992518747771,40.79243616756075],[-119.21990408134728,40.79245780225535],[-119.21988586703965,40.792480905041124],[-119.21987071997049,40.792505253427024],[-119.21985878601706,40.792530612925994],[-119.21985018011306,40.792556739313184],[-119.21984498514178,40.79258338097797],[-119.21984325113762,40.792610281347],[-119.2198449948042,40.79263718135517],[-119.21985019935323,40.79266382194054],[-119.21985881466607,40.792689946539234],[-119.21987075777622,40.79271530355636],[-119.21988591366829,40.792739648789],[-119.21990413638538,40.792762747777985],[-119.21992525043476,40.79278437806607],[-119.21994905247779,40.79280433134026],[-119.21997531328822,40.792822415437996],[-119.22000377995961,40.792838456198],[-119.22003417834128,40.79285229913749],[-119.22006621567806,40.79286381093996],[-119.22009958343025,40.79287288073928],[-119.22013396024501,40.79287942118729],[-119.22016901505104,40.79288336929519],[-119.22020441024736,40.79288468704007]]]},"properties":{"OBJECTID":5,"name":"9:00 & G Plaza","FID":9}},{"type":"Feature","id":6,"geometry":{"type":"Polygon","coordinates":[[[-119.2160922164091,40.78976010387929],[-119.2161276130917,40.78975877969827],[-119.21616266855483,40.78975482494946],[-119.21619704519124,40.789748277719724],[-119.21623041193139,40.7897392010632],[-119.21626244743213,40.78972768239406],[-119.21629284317136,40.78971383264459],[-119.21632130641952,40.78969778519684],[-119.2163475630588,40.789679694598014],[-119.21637136022296,40.78965973507204],[-119.21639246873276,40.78963809884166],[-119.21641068530292,40.78961499427707],[-119.21642583449982,40.78959064388925],[-119.21643777043117,40.789565282187],[-119.21644637815058,40.78953915341833],[-119.2164515747648,40.78951250921834],[-119.21645331023157,40.789485606185686],[-119.21645156784155,40.78945870341145],[-119.21644636437914,40.789432059983845],[-119.21643774996052,40.78940593249325],[-119.21642580755089,40.78938057256091],[-119.21641065216552,40.789356224415855],[-119.21639242976168,40.789333122542764],[-119.21637131583306,40.789311489423945],[-119.21634751371955,40.78929153339667],[-119.21632125264891,40.7892734466468],[-119.21629278552923,40.78925740335806],[-119.21626238651315,40.78924355803455],[-119.2162303483579,40.78923204401296],[-119.21619697960575,40.789222972178386],[-119.21616260161277,40.78921642989653],[-119.2161275454541,40.78921248017243],[-119.21609214873571,40.78921116104359],[-119.2160567523432,40.78921248521383],[-119.216021697159,40.789216439930804],[-119.21598732077962,40.789222987108886],[-119.21595395426473,40.78923206369592],[-119.21592191894888,40.78924358228039],[-119.21589152334698,40.78925743193327],[-119.21586306018331,40.789273479276225],[-119.21583680357251,40.78929156976609],[-119.21581300637968,40.78931152918311],[-119.21579189778518,40.78933316530872],[-119.21577368107755,40.789356269776775],[-119.21575853169564,40.789380620079974],[-119.21574659553895,40.78940598171283],[-119.21573798756238,40.78943211042992],[-119.21573279066918,40.78945875459817],[-119.21573105491233,40.789485657620155],[-119.21573279701225,40.78951256040518],[-119.21573800019574,40.789539203864585],[-119.21574661435737,40.78956533140683],[-119.21575855654169,40.78959069140867],[-119.21577371174223,40.78961503963841],[-119.21579193400872,40.78963814160808],[-119.21581304785283,40.78965977483168],[-119.21583684993789,40.789679730967926],[-119.21586311103715,40.78969781782675],[-119.21589157824155,40.789713861220264],[-119.21592197739508,40.78972770664029],[-119.21595401573535,40.78973922074649],[-119.21598738471289,40.7897482926505],[-119.21602176296301,40.789754834983924],[-119.21605681940062,40.789758784739774],[-119.2160922164091,40.78976010387929]]]},"properties":{"OBJECTID":6,"name":"9:00 & B Plaza","FID":7}},{"type":"Feature","id":7,"geometry":{"type":"Polygon","coordinates":[[[-119.21949187284434,40.78352133470094],[-119.2195272661491,40.78352000947602],[-119.21956231813222,40.78351605369036],[-119.21959669121996,40.78350950544082],[-119.21963005437692,40.78350042779135],[-119.21966208629453,40.78348890816565],[-119.21969247848513,40.78347505750527],[-119.2197209382534,40.783459009201],[-119.219747191515,40.783440917808306],[-119.21977098543624,40.78342095755877],[-119.21979209086909,40.78339932068205],[-119.21981030455785,40.783376215554654],[-119.21982545109681,40.78335186469291],[-119.21983738461911,40.78332650261019],[-119.21984599020169,40.78330037355821],[-119.2198511849718,40.78327372917477],[-119.21985291890493,40.783246826060285],[-119.21985117530656,40.7832199233066],[-119.2198459709727,40.78319328000183],[-119.21983735602791,40.78316715273505],[-119.21982541344252,40.78314179312543],[-119.21981025823338,40.78311744539882],[-119.21979203635614,40.783094344035995],[-119.21977092329936,40.78307271151423],[-119.21974712239462,40.78305275616507],[-119.219720862858,40.78303467016787],[-119.21969239758276,40.78301862769908],[-119.21966200070386,40.78300478325497],[-119.21962996495792,40.78299327016368],[-119.21959659886393,40.78298419930137],[-119.21956222375249,40.78297765802441],[-119.21952717067093,40.78297370932812],[-119.21949177719557,40.782972391240165],[-119.2194563841808,40.78297371645428],[-119.21942133247647,40.78297767220809],[-119.21938695964569,40.78298422040596],[-119.21935359671386,40.78299329798594],[-119.21932156498106,40.783004817527],[-119.21929117292773,40.7830186680908],[-119.21926271324391,40.78303471629029],[-119.21923646001075,40.78305280757404],[-119.21921266606083,40.78307276771465],[-119.21919156054327,40.78309440448661],[-119.21917334671697,40.783117509517524],[-119.21915819999306,40.783141860294684],[-119.21914626624542,40.783167222308],[-119.21913766040578,40.78319335130845],[-119.21913246535682,40.7832199956602],[-119.21913073113365,40.78324689876401],[-119.219132474442,40.783273801528495],[-119.2191376784971,40.783300444865105],[-119.21914629318495,40.78332657218355],[-119.21915823554515,40.78335193186265],[-119.21917339056952,40.78337627967392],[-119.21919161230952,40.78339938113335],[-119.2192127252818,40.78342101375987],[-119.21923652615811,40.78344096921797],[-119.21926278572346,40.78345905532411],[-119.2192912510834,40.783475097897615],[-119.21932164809976,40.78348894243825],[-119.2193536840307,40.7835004556141],[-119.21938705035,40.78350952654579],[-119.21942142571851,40.783516067874295],[-119.21945647907899,40.783520016602296],[-119.21949187284434,40.78352133470094]]]},"properties":{"OBJECTID":7,"name":"7:30 & B Plaza","FID":6}},{"type":"Feature","id":8,"geometry":{"type":"Polygon","coordinates":[[[-119.2078840950419,40.77469874130129],[-119.20791948389295,40.77469741963461],[-119.20795453192547,40.77469346736896],[-119.20798890160371,40.77468692256731],[-119.2080222619252,40.774677848260396],[-119.20805429160858,40.77466633183975],[-119.2080846821878,40.77465248421601],[-119.208113140983,40.774636438750804],[-119.20813939391924,40.774618349972194],[-119.20816318816594,40.774598392086574],[-119.20818429457191,40.77457675730088],[-119.20820250987215,40.77455365397143],[-119.20821765864535,40.77452930459729],[-119.20822959500322,40.77450394367747],[-119.20823820399532,40.7744778154525],[-119.20824340271602,40.7744511715522],[-119.20824514110288,40.77442426857235],[-119.20824340241845,40.77439736560354],[-119.2082382034113,40.77437072173587],[-119.20822959415482,40.774344593563924],[-119.2082176575645,40.77431923271552],[-119.2082025085995,40.77429488342848],[-119.2081842931553,40.77427178019857],[-119.20816318665854,40.774250145521094],[-119.20813939237756,40.77423018774835],[-119.20811313946469,40.774212099082995],[-119.20808468074941,40.77419605372723],[-119.20805429030348,40.774182206205076],[-119.2080222608016,40.77417068987436],[-119.20798890070265,40.774161615642406],[-119.20795453127941,40.77415507089805],[-119.20791948352452,40.77415111867],[-119.20788409496296,40.77414979701991],[-119.20784870640178,40.774151118675874],[-119.207813658648,40.77415507090976],[-119.20777928922665,40.77416161565983],[-119.20774592913033,40.77417068989733],[-119.20771389963176,40.77418220623338],[-119.20768350918982,40.77419605376058],[-119.20765505047918,40.77421209912109],[-119.20762879757146,40.77423018779079],[-119.20760500329624,40.77425014556751],[-119.20758389680572,40.77427178024848],[-119.20756568136815,40.77429488348143],[-119.20755053241017,40.77431923277098],[-119.20753859582712,40.774344593621365],[-119.20752998657818,40.77437072179475],[-119.20752478757872,40.774397365663276],[-119.207523048902,40.774424268632394],[-119.20752478729659,40.774451171611936],[-119.20752998602497,40.77447781551137],[-119.20753859502457,40.77450394373491],[-119.20755053138971,40.77452930465274],[-119.20756568016994,40.774553654024366],[-119.20758389547684,40.774576757350786],[-119.20760500188904,40.77459839213299],[-119.20762879614148,40.774618350014634],[-119.2076550490829,40.77463643878889],[-119.20768350788273,40.77465248424937],[-119.20771389846594,40.774666331868055],[-119.20774592815262,40.77467784828336],[-119.20777928847673,40.77468692258473],[-119.20781365815685,40.77469346738067],[-119.20784870619049,40.77469741964049],[-119.2078840950419,40.77469874130129]]]},"properties":{"OBJECTID":8,"name":"4:30 & B Plaza","FID":2}},{"type":"Feature","id":9,"geometry":{"type":"Polygon","coordinates":[[[-119.19967751210868,40.77728314637756],[-119.19971290249079,40.7772818272283],[-119.19974795236487,40.77727787745725],[-119.19978232417749,40.777271335103315],[-119.19981568690567,40.77726226317368],[-119.19984771924477,40.777250749037016],[-119.1998781127032,40.77723690358194],[-119.1999065745734,40.77722086014916],[-119.19993283075075,40.77720277324719],[-119.19995662837353,40.777182817064364],[-119.19997773825801,40.77716118379123],[-119.19999595710568,40.7771380817695],[-119.20001110946106,40.77711373348566],[-119.20002304940134,40.777088373428256],[-119.20003166194161,40.77706224582946],[-119.2000368641421,40.77703560231311],[-119.20003860590677,40.77700869947127],[-119.20003687046571,40.77698179639315],[-119.20003167453625,40.77695515216997],[-119.20002306816214,40.77692902339974],[-119.20001113423109,40.77690366171599],[-119.19999598767667,40.77687931136467],[-119.19997777437112,40.77685620685169],[-119.1999566697205,40.77683457068478],[-119.19993287697538,40.77681461123054],[-119.19990662527331,40.776796520707876],[-119.19987816743208,40.77678047333685],[-119.19984777751509,40.776766623660855],[-119.19981574819184,40.77675510505853],[-119.1997823879196,40.77674602845901],[-119.19974801797277,40.77673948127396],[-119.199712969349,40.7767355265556],[-119.19967757958173,40.776734202389584],[-119.19964218948955,40.77673552152818],[-119.19960713989424,40.77673947126751],[-119.19957276833858,40.776746013569884],[-119.19953940583567,40.776755085430125],[-119.19950737368146,40.77676659948223],[-119.19947698036039,40.77678044484082],[-119.19944851857485,40.77679648816888],[-119.19942226242614,40.77681457496194],[-119.19939846477489,40.776834531035824],[-119.19937735480593,40.77685616420424],[-119.199359135821,40.77687926612941],[-119.19934398328091,40.776903614328624],[-119.19933204311552,40.776928974316576],[-119.19932343031837,40.77695510186372],[-119.19931822783913,40.77698174534825],[-119.19931648578455,40.77700864817933],[-119.1993182209357,40.77703555126811],[-119.19932341658634,40.777062195523015],[-119.19933202270353,40.7770883243448],[-119.19934395640932,40.777113686097934],[-119.19935910277889,40.77713803653386],[-119.199377315947,40.777161141143324],[-119.19939842051296,40.77718277741495],[-119.19942221322947,40.77720273697808],[-119.19944846495999,40.777220827609646],[-119.19947692288571,40.77723687508544],[-119.19950731293994,40.777250724857964],[-119.1995393424479,40.77726224354496],[-119.1995727029453,40.77727132021392],[-119.199607073149,40.777277867450586],[-119.19964212205147,40.77728182220075],[-119.19967751210868,40.77728314637756]]]},"properties":{"OBJECTID":9,"name":"3:00 & B Plaza","FID":0}},{"type":"Feature","id":10,"geometry":{"type":"Polygon","coordinates":[[[-119.21553974687261,40.77814122045516],[-119.21563176221966,40.77813777799768],[-119.21572289059041,40.77812749600281],[-119.21581225434163,40.77811047349491],[-119.21589899282664,40.778086874415074],[-119.21598227068439,40.77805692604206],[-119.21602235972817,40.77803965868763],[-119.21606128588569,40.778020916803364],[-119.21609895537894,40.77800074554127],[-119.21613527745757,40.77797919349698],[-119.21617016461768,40.77795631259254],[-119.21620353281251,40.7779321579514],[-119.21623530165499,40.77790678776551],[-119.21626539461134,40.777880263155225],[-119.21629373918557,40.77785264802197],[-119.21632026709396,40.77782400889431],[-119.21634491442965,40.777794414767676],[-119.21636762181657,40.77776393693812],[-119.2163883345525,40.77773264883057],[-119.21640700274072,40.77770062582186],[-119.21642358141033,40.77766794505922],[-119.21643803062454,40.77763468527439],[-119.21645031557674,40.77760092659389],[-119.21646040667446,40.777566750346004],[-119.21646827961062,40.777532238864914],[-119.21647391542197,40.777497475292215],[-119.21647730053473,40.777462543376735],[-119.2164784267975,40.77742752727272],[-119.21647729150048,40.777392511337105],[-119.21647389738231,40.777357579926274],[-119.21646825262323,40.77732281719285],[-119.21646037082536,40.77728830688295],[-119.21645027098008,40.777254132134544],[-119.21643797742195,40.777220375277],[-119.21642351977029,40.77718711763281],[-119.21640693285774,40.777154439321826],[-119.21638825664621,40.77712241906801],[-119.21636753613079,40.77709113401001],[-119.21634482123106,40.77706065951515],[-119.21632016667108,40.77703106899802],[-119.21629363184738,40.7770024337436],[-119.2162652806858,40.776974822735426],[-119.21623518148773,40.77694830248954],[-119.21620340676522,40.77692293689423],[-119.21617003306658,40.7768987870561],[-119.21613514079175,40.77687591115289],[-119.2160988139988,40.77685436429331],[-119.21606114020125,40.776834198384364],[-119.21602221015742,40.77681546200621],[-119.21598211765168,40.77679820029525],[-119.2158988341599,40.7767682635574],[-119.21581209177357,40.77674467646977],[-119.2157227258473,40.77672766618213],[-119.21563159699886,40.77671739650785],[-119.21553958282169,40.776713966346385],[-119.21544756943442,40.77671740873105],[-119.21535644294804,40.77672769051087],[-119.21526708093329,40.77674471266973],[-119.21518034397026,40.776768311280016],[-119.21509706736134,40.77679825908091],[-119.21505697882414,40.776815526117595],[-119.21501805308785,40.77683426766699],[-119.21498038392647,40.77685443858033],[-119.2149440620871,40.77687599026531],[-119.21490917507138,40.77689887080335],[-119.21487580692464,40.77692302507459],[-119.21484403803346,40.77694839489057],[-119.21481394493217,40.77697491913452],[-119.2147856001181,40.77700253390856],[-119.21475907187732,40.77703117268756],[-119.21473442411987,40.77706076647944],[-119.21471171622586,40.77709124399139],[-119.21469100290243,40.77712253180154],[-119.214672334052,40.77715455453594],[-119.21465575465169,40.777187235049965],[-119.21464130464551,40.77722049461429],[-119.21462901884756,40.77725425310453],[-119.21461892685849,40.777288429194186],[-119.21461105299404,40.77732294055066],[-119.21460541622638,40.777357704033534],[-119.21460203013832,40.77739263589479],[-119.21460090289091,40.77742765198078],[-119.21460203720325,40.777462667934735],[-119.2146054303463,40.77749759940008],[-119.21461107414919,40.777532362223646],[-119.21461895501892,40.77756687265845],[-119.21462905397314,40.777601047565355],[-119.21464134668585,40.777634804613434],[-119.21465580354584,40.777668062478355],[-119.21467238972814,40.77770074103818],[-119.21469106527779,40.77773276156651],[-119.21471178520622,40.777764046922115],[-119.21473449959932,40.77779452173472],[-119.21475915373809,40.77782411258671],[-119.21478568822992,40.77785274818991],[-119.21481403915222,40.77788035955739],[-119.21484413820595,40.77790688016964],[-119.21487591288039,40.777932246134874],[-119.21490928662767,40.77795639634292],[-119.21494417904744,40.77797927261246],[-119.2149805060802,40.77800081983127],[-119.21501818021017,40.778020986088876],[-119.21505711067576,40.77803972280178],[-119.21509720368861,40.77805698483034],[-119.21518048843011,40.778086922139885],[-119.21526723233913,40.778110509696624],[-119.21535660000242,40.77812752033274],[-119.21544773073556,40.778137790221514],[-119.21553974687261,40.77814122045516]]]},"properties":{"OBJECTID":10,"name":"Center Camp Plaza","FID":8}},{"type":"Feature","id":11,"geometry":{"type":"Polygon","coordinates":[[[-119.19628871644436,40.780828303754525],[-119.19709089302292,40.78099177248858],[-119.19713186709207,40.78088143626418],[-119.19718739725981,40.78074024812564],[-119.19725195473787,40.780586345385],[-119.19731151496048,40.780452619823436],[-119.19697012208424,40.78036322901476],[-119.1968677065323,40.7803364123857],[-119.19652631366179,40.78024701846117],[-119.19646215221195,40.780391193591804],[-119.19639486703359,40.78055157355462],[-119.19634333817582,40.78068187540767],[-119.19628871644436,40.780828303754525]]]},"properties":{"OBJECTID":11,"name":"2:00 & B Plaza","FID":11}},{"type":"Feature","id":12,"geometry":{"type":"Polygon","coordinates":[[[-119.21085135703842,40.79145172262092],[-119.21106636912309,40.792061502085026],[-119.21124125163773,40.79202394266649],[-119.21146364084464,40.79197302401873],[-119.2116690610716,40.791922798052056],[-119.21183122442012,40.79188094776283],[-119.21171363389614,40.79162143066911],[-119.21167835798406,40.79154357704627],[-119.21156076865078,40.79128406428442],[-119.21141911547473,40.79132069827381],[-119.21120789308311,40.79137236760853],[-119.21101781194336,40.7914158883771],[-119.21085135703842,40.79145172262092]]]},"properties":{"OBJECTID":12,"name":"10:00 & B Plaza","FID":10}}]}
