{"type":"FeatureCollection","features":[{"type":"Feature","id":1,"geometry":{"type":"Polygon","coordinates":[[[-119.2139965400482,40.79168718199504],[-119.21443593541863,40.79228662570093],[-119.21452361092068,40.79224959040334],[-119.21461092608043,40.79221206428849],[-119.21415943525196,40.79161783308315],[-119.2140781559613,40.79165273538493],[-119.2139965400482,40.79168718199504]]]},"properties":{"OBJECTID":1,"class":"in city","Shape_Length":607.2584833303625,"Shape_Area":13406.4446689417}},{"type":"Feature","id":2,"geometry":{"type":"Polygon","coordinates":[[[-119.21639175340067,40.794851925195836],[-119.21683394712493,40.795450184083826],[-119.21692360646146,40.79541194736627],[-119.2170129812646,40.795373328790404],[-119.2165614511569,40.79477911181656],[-119.2164767332793,40.794815695475506],[-119.21639175340067,40.794851925195836]]]},"properties":{"OBJECTID":2,"class":"in city","Shape_Length":610.8971791181286,"Shape_Area":13861.7224141775}},{"type":"Feature","id":3,"geometry":{"type":"Polygon","coordinates":[[[-119.19678136668135,40.77860136134122],[-119.19682668713654,40.77853933383572],[-119.19687260569256,40.7784775621108],[-119.19609092060163,40.77813438986646],[-119.19604154999374,40.77820074807813],[-119.1959928248483,40.77826738098692],[-119.19678136668135,40.77860136134122]]]},"properties":{"OBJECTID":3,"class":"in city","Shape_Length":607.25791279241,"Shape_Area":13406.484707637333}},{"type":"Feature","id":4,"geometry":{"type":"Polygon","coordinates":[[[-119.19261834529067,40.77678079310246],[-119.19266600968743,40.77671621190101],[-119.19271414066938,40.776651830651566],[-119.19193250312138,40.77630863284032],[-119.19188169602212,40.77637655326417],[-119.19183138865715,40.77644468895397],[-119.19261834529067,40.77678079310246]]]},"properties":{"OBJECTID":4,"class":"in city","Shape_Length":610.8978747533024,"Shape_Area":13861.77081928905}},{"type":"Feature","id":5,"geometry":{"type":"Polygon","coordinates":[[[-119.19815715302359,40.77593029157502],[-119.19809333231275,40.77588176541202],[-119.19802951287954,40.77583323831294],[-119.19796520867091,40.775882955749296],[-119.19790133668421,40.77593299286446],[-119.19783789810425,40.775983348758736],[-119.19777490359174,40.77603402613528],[-119.19771234604107,40.77608501418811],[-119.19765023848171,40.77613631832214],[-119.19758857499187,40.77618793313453],[-119.19752736386405,40.77623985592527],[-119.1974666062827,40.77629208939663],[-119.19740630343424,40.77634462274344],[-119.19754242507489,40.77643476430372],[-119.19760190688041,40.776382940407906],[-119.19766183986903,40.77633141548704],[-119.19772221811698,40.77628019404245],[-119.19778304162412,40.77622927607339],[-119.19784430565137,40.776178665180836],[-119.1979060078291,40.77612836406531],[-119.19796814578771,40.776078374526925],[-119.19803071834245,40.776028697465435],[-119.19809372193913,40.77597933558131],[-119.19815715302359,40.77593029157502]]]},"properties":{"OBJECTID":5,"class":"in city","Shape_Length":604.6130731390889,"Shape_Area":12615.09560541705}},{"type":"Feature","id":6,"geometry":{"type":"Polygon","coordinates":[[[-119.19476208483643,40.773348650513505],[-119.19412394434227,40.772863370094186],[-119.19405386117307,40.772917308037904],[-119.19398414384796,40.7729715170334],[-119.1946292077477,40.77345147615036],[-119.19469547283695,40.77339993365935],[-119.19476208483643,40.773348650513505]]]},"properties":{"OBJECTID":6,"class":"in city","Shape_Length":607.7643032384804,"Shape_Area":13470.129887037103}},{"type":"Feature","id":7,"geometry":{"type":"Polygon","coordinates":[[[-119.20148525578932,40.774931597564056],[-119.20103399893519,40.774337313233566],[-119.20094760440314,40.77437601970946],[-119.20086158877159,40.77441520971237],[-119.20132482683528,40.77500413921139],[-119.20140486547253,40.774967644631424],[-119.20148525578932,40.774931597564056]]]},"properties":{"OBJECTID":7,"class":"in city","Shape_Length":607.2576240787774,"Shape_Area":13406.388139309378}},{"type":"Feature","id":8,"geometry":{"type":"Polygon","coordinates":[[[-119.2045344826392,40.77395606410464],[-119.20430090311189,40.77329324880633],[-119.20420427742263,40.77331364122034],[-119.20410785064273,40.773334572959925],[-119.20435482675265,40.77399457408785],[-119.2044445605648,40.773975066537965],[-119.2045344826392,40.77395606410464]]]},"properties":{"OBJECTID":8,"class":"in city","Shape_Length":607.2579714368368,"Shape_Area":13406.434773545927}},{"type":"Feature","id":9,"geometry":{"type":"Polygon","coordinates":[[[-119.19908467072634,40.771769994219326],[-119.19863345901663,40.77117570378198],[-119.19854479642652,40.77121521874995],[-119.198456426245,40.77125510918243],[-119.19891690610916,40.77184527762845],[-119.19900065227195,40.771807461246794],[-119.19908467072634,40.771769994219326]]]},"properties":{"OBJECTID":9,"class":"in city","Shape_Length":610.8985072987206,"Shape_Area":13861.767397965661}},{"type":"Feature","id":10,"geometry":{"type":"Polygon","coordinates":[[[-119.20329189175565,40.77042988678556],[-119.20305833928974,40.76976707306985],[-119.20296604995922,40.76978636152619],[-119.20287389439142,40.769806014617565],[-119.20311694235326,40.77046685159275],[-119.2032043549063,40.770448196773785],[-119.20329189175565,40.77042988678556]]]},"properties":{"OBJECTID":10,"class":"in city","Shape_Length":603.3224650766433,"Shape_Area":12914.921702011303}},{"type":"Feature","id":11,"geometry":{"type":"Polygon","coordinates":[[[-119.20781188680725,40.773613641123404],[-119.20781188745143,40.772927450372315],[-119.20771161156809,40.77292813825712],[-119.20761134515658,40.77292938796747],[-119.20762523215747,40.77361549500257],[-119.20771855948428,40.773614306505195],[-119.20781188680725,40.773613641123404]]]},"properties":{"OBJECTID":11,"class":"in city","Shape_Length":607.26148980186,"Shape_Area":13406.846016637455}},{"type":"Feature","id":12,"geometry":{"type":"Polygon","coordinates":[[[-119.20781189095541,40.769194588722264],[-119.20781189159948,40.76850840284703],[-119.20771066889222,40.76850888991915],[-119.20760945210404,40.768509779426786],[-119.2076192909211,40.76919592390095],[-119.20771559093967,40.769195064995195],[-119.20781189095541,40.769194588722264]]]},"properties":{"OBJECTID":12,"class":"in city","Shape_Length":609.4327875494679,"Shape_Area":13678.673190243433}},{"type":"Feature","id":13,"geometry":{"type":"Polygon","coordinates":[[[-119.21233680502164,40.770401476177625],[-119.21257036095247,40.76973866270197],[-119.21247774727269,40.769720292599956],[-119.21238501048558,40.769702288932514],[-119.21216097842593,40.770366998139934],[-119.21224894972846,40.77038406384357],[-119.21233680502164,40.770401476177625]]]},"properties":{"OBJECTID":13,"class":"in city","Shape_Length":603.3229525884648,"Shape_Area":12914.98748712323}},{"type":"Feature","id":14,"geometry":{"type":"Polygon","coordinates":[[[-119.21109420949136,40.77392765221891],[-119.21132779129927,40.77326483626025],[-119.21123069674579,40.773245773718045],[-119.21113341985898,40.773227255001814],[-119.21091329260007,40.773892723093496],[-119.21100383392705,40.77390993374819],[-119.21109420949136,40.77392765221891]]]},"properties":{"OBJECTID":14,"class":"in city","Shape_Length":607.257769974601,"Shape_Area":13406.427061338945}},{"type":"Feature","id":15,"geometry":{"type":"Polygon","coordinates":[[[-119.21415785736305,40.77487670885395],[-119.21460911478957,40.77428242583231],[-119.21452181562562,40.774244911527035],[-119.21443415650981,40.77420788434689],[-119.21399498914047,40.77480737724931],[-119.21407659317026,40.77484181434416],[-119.21415785736305,40.77487670885395]]]},"properties":{"OBJECTID":15,"class":"in city","Shape_Length":607.2583589609626,"Shape_Area":13406.444499515601}},{"type":"Feature","id":16,"geometry":{"type":"Polygon","coordinates":[[[-119.216558446655,40.77171510768144],[-119.21700965775267,40.77112081855299],[-119.21692645040292,40.77108485458432],[-119.2168429991849,40.7710492192574],[-119.21640034192686,40.77164721267264],[-119.21647950912595,40.77168100440895],[-119.216558446655,40.77171510768144]]]},"properties":{"OBJECTID":16,"class":"in city","Shape_Length":603.322524244263,"Shape_Area":12914.920315366615}},{"type":"Feature","id":17,"geometry":{"type":"Polygon","coordinates":[[[-119.21752750782629,40.77699619687739],[-119.21766458761115,40.77690689891394],[-119.21760284995858,40.77685228428242],[-119.2175405865046,40.77679801725457],[-119.21747779843412,40.776744098729914],[-119.21741449167115,40.77669053411014],[-119.21735066266284,40.776637327897234],[-119.21728632088595,40.77658448008949],[-119.21722146989511,40.77653199518834],[-119.21715611087484,40.776479872292306],[-119.21709025093351,40.776428116802975],[-119.21702389125598,40.77637673052044],[-119.21689624905942,40.77647378300425],[-119.21696163135927,40.7765244175184],[-119.21702652220968,40.77657541493573],[-119.21709091687235,40.776626776157926],[-119.21715481297737,40.77667849578301],[-119.21721820578585,40.77673057111064],[-119.21728109174379,40.7767830012415],[-119.21734346966564,40.776835780773446],[-119.21740533244369,40.776888909707864],[-119.21746668007681,40.776942381742124],[-119.21752750782629,40.77699619687739]]]},"properties":{"OBJECTID":17,"class":"in city","Shape_Length":620.8597664620378,"Shape_Area":13021.22444064775}},{"type":"Feature","id":18,"geometry":{"type":"Polygon","coordinates":[[[-119.22090397323227,40.77327102771951],[-119.2215421135875,40.77278574775233],[-119.22147113533049,40.77273248249418],[-119.22139980544551,40.772679497288934],[-119.22076866893664,40.77317003912413],[-119.22083648743157,40.77322039924853],[-119.22090397323227,40.77327102771951]]]},"properties":{"OBJECTID":18,"class":"in city","Shape_Length":607.7694209774778,"Shape_Area":13470.766089691862}},{"type":"Feature","id":19,"geometry":{"type":"Polygon","coordinates":[[[-119.2231434048041,40.776772008835756],[-119.22392992046632,40.77643531303237],[-119.22388302223543,40.77637187838804],[-119.2238356882166,40.776308630187835],[-119.22305404958291,40.77665182812919],[-119.22309893147256,40.7767118297652],[-119.2231434048041,40.776772008835756]]]},"properties":{"OBJECTID":19,"class":"in city","Shape_Length":603.323345266658,"Shape_Area":12914.972431195825}},{"type":"Feature","id":20,"geometry":{"type":"Polygon","coordinates":[[[-119.21898682413246,40.77860135949494],[-119.21977536705391,40.77826737900943],[-119.21972664188931,40.77820074610875],[-119.21967727126231,40.778134387905304],[-119.21889558508562,40.77847756027972],[-119.21894150365925,40.778539331096496],[-119.21898682413246,40.77860135949494]]]},"properties":{"OBJECTID":20,"class":"in city","Shape_Length":607.2584843092859,"Shape_Area":13406.490502532875}},{"type":"Feature","id":21,"geometry":{"type":"Polygon","coordinates":[[[-119.22019064606147,40.780943939265576],[-119.22106606041268,40.78077647202323],[-119.22104167994006,40.78070252306204],[-119.22101658402227,40.78062871285323],[-119.22014466334699,40.78080640813025],[-119.22016798755566,40.78087510927943],[-119.22019064606147,40.780943939265576]]]},"properties":{"OBJECTID":21,"class":"in city","Shape_Length":607.2581673648478,"Shape_Area":13406.47348158296}},{"type":"Feature","id":22,"geometry":{"type":"Polygon","coordinates":[[[-119.22482861155565,40.77999466457966],[-119.22570299997174,40.77982417532775],[-119.22567929441998,40.779753675244415],[-119.22565510324534,40.77968326978265],[-119.2247832132272,40.77986099832922],[-119.22480613980692,40.77992778594845],[-119.22482861155565,40.77999466457966]]]},"properties":{"OBJECTID":22,"class":"in city","Shape_Length":603.3234218362426,"Shape_Area":12914.992496371638}},{"type":"Feature","id":23,"geometry":{"type":"Polygon","coordinates":[[[-119.22637025769883,40.78344728653508],[-119.22727294793002,40.78345462327418],[-119.22727409601941,40.78337766820491],[-119.22727471454763,40.78330071232313],[-119.22637197279602,40.783300860556785],[-119.22637136640418,40.7833740748569],[-119.22637025769883,40.78344728653508]]]},"properties":{"OBJECTID":23,"class":"in city","Shape_Length":609.4314828246727,"Shape_Area":13678.545457465954}},{"type":"Feature","id":24,"geometry":{"type":"Polygon","coordinates":[[[-119.22055588186569,40.78344353615471],[-119.22145852465985,40.78345400259218],[-119.22146015348689,40.78337777512732],[-119.22146104306005,40.783301543245976],[-119.22055829297891,40.783301646001185],[-119.22055743098579,40.78337259374213],[-119.22055588186569,40.78344353615471]]]},"properties":{"OBJECTID":24,"class":"in city","Shape_Length":607.2589147923477,"Shape_Area":13406.484917388105}},{"type":"Feature","id":25,"geometry":{"type":"Polygon","coordinates":[[[-119.22005755038728,40.785929815872656],[-119.22092590515004,40.78611750378173],[-119.2209534348899,40.78604419644666],[-119.22098025250955,40.78597073700065],[-119.22010819669744,40.78579323363147],[-119.22008320412355,40.785861594959194],[-119.22005755038728,40.785929815872656]]]},"properties":{"OBJECTID":25,"class":"in city","Shape_Length":607.2581918824377,"Shape_Area":13406.45245782773}},{"type":"Feature","id":26,"geometry":{"type":"Polygon","coordinates":[[[-119.22469896214828,40.786870484408986],[-119.22556843733626,40.787055170044354],[-119.22559428323052,40.78698510546926],[-119.22561964684621,40.786914937404354],[-119.22474757226563,40.78673747182972],[-119.22472349353154,40.78680402491519],[-119.22469896214828,40.786870484408986]]]},"properties":{"OBJECTID":26,"class":"in city","Shape_Length":603.3232740253044,"Shape_Area":12915.012444069407}},{"type":"Feature","id":27,"geometry":{"type":"Polygon","coordinates":[[[-119.22288580052475,40.79006370172606],[-119.22366233738886,40.79041373885668],[-119.22371481608893,40.790346551790485],[-119.22376679937615,40.79027914234475],[-119.22298483987541,40.78993615572028],[-119.22293555071715,40.790000032711625],[-119.22288580052475,40.79006370172606]]]},"properties":{"OBJECTID":27,"class":"in city","Shape_Length":610.8991957609187,"Shape_Area":13861.781375935929}},{"type":"Feature","id":28,"geometry":{"type":"Polygon","coordinates":[[[-119.21872951919097,40.78823332985303],[-119.21950439485111,40.78858545737522],[-119.21955595248384,40.788520064263885],[-119.21960687373483,40.788454383934464],[-119.21882495348436,40.78811136630495],[-119.21877753200594,40.788172481335046],[-119.21872951919097,40.78823332985303]]]},"properties":{"OBJECTID":28,"class":"in city","Shape_Length":607.2581893706906,"Shape_Area":13406.453926856657}},{"type":"Feature","id":29,"geometry":{"type":"Polygon","coordinates":[[[-119.22077256821201,40.79332339746985],[-119.22140409457485,40.79381379118326],[-119.22147542426856,40.793760791206026],[-119.22154639477334,40.79370751297295],[-119.22090786563002,40.7932223815289],[-119.22084038643442,40.79327302052282],[-119.22077256821201,40.79332339746985]]]},"properties":{"OBJECTID":29,"class":"in city","Shape_Length":607.7633733051254,"Shape_Area":13470.076052127239}},{"type":"Feature","id":30,"geometry":{"type":"Polygon","coordinates":[[[-119.21684728059081,40.791108722649575],[-119.21696588227714,40.79121220311931],[-119.21703500516975,40.79116636139528],[-119.21710372626076,40.79112017296978],[-119.21717204910522,40.79107364324627],[-119.21723996066908,40.79102676682351],[-119.21730746569287,40.790979554507814],[-119.21737455469696,40.79093199999716],[-119.21744123005206,40.79088411139659],[-119.21750748820352,40.79083588870704],[-119.21757332322689,40.7907873301288],[-119.21763873867823,40.79073844736873],[-119.21751104182401,40.79064141590944],[-119.21744651371341,40.79068963575762],[-119.2173815660345,40.79073753052407],[-119.21731620352625,40.7907850975061],[-119.21725042855815,40.7908323349019],[-119.21718424468445,40.79087924000896],[-119.21711765308994,40.790925811926],[-119.2170506573289,40.79097204795059],[-119.21698326214054,40.79101794628057],[-119.21691546752497,40.791063506014815],[-119.21684728059081,40.791108722649575]]]},"properties":{"OBJECTID":30,"class":"in city","Shape_Length":604.6130552573348,"Shape_Area":12615.0786377255}},{"type":"Feature","id":31,"geometry":{"type":"Polygon","coordinates":[[[-119.19553012281254,40.78119238052963],[-119.19557893594023,40.78120237048194],[-119.19564465327615,40.78101684840253],[-119.19559584027458,40.78100685757722],[-119.19553012281254,40.78119238052963]]]},"properties":{"OBJECTID":31,"class":"2/10","Shape_Length":167.9999695858999,"Shape_Area":979.9991342832237}},{"type":"Feature","id":32,"geometry":{"type":"Polygon","coordinates":[[[-119.19084984691811,40.780315410456154],[-119.19089865870201,40.780325402389444],[-119.19096438819378,40.78013988294937],[-119.19091557653609,40.78012989014307],[-119.19084984691811,40.780315410456154]]]},"properties":{"OBJECTID":32,"class":"2/10","Shape_Length":167.99996958327065,"Shape_Area":979.9991341640942}},{"type":"Feature","id":33,"geometry":{"type":"Polygon","coordinates":[[[-119.21048173319627,40.792629963472216],[-119.21049481314144,40.79266708080074],[-119.21073900962577,40.79261738101804],[-119.21072592955436,40.79258026281637],[-119.21048173319627,40.792629963472216]]]},"properties":{"OBJECTID":33,"class":"2/10","Shape_Length":167.9998328867975,"Shape_Area":979.9971775013499}},{"type":"Feature","id":34,"geometry":{"type":"Polygon","coordinates":[[[-119.21171969219846,40.796151698713985],[-119.21173277352432,40.79618881587941],[-119.2119769819891,40.79613911350676],[-119.2119639005369,40.79610199546824],[-119.21171969219846,40.796151698713985]]]},"properties":{"OBJECTID":34,"class":"2/10","Shape_Length":167.99983287767338,"Shape_Area":979.9971772359628}},{"type":"Feature","id":35,"geometry":{"type":"Polygon","coordinates":[[[-119.20407425150054,40.780719596273926],[-119.20411110442922,40.7807458983796],[-119.20428411809823,40.780605835647805],[-119.20424726754813,40.780579531795794],[-119.20407425150054,40.780719596273926]]]},"properties":{"OBJECTID":35,"class":"playa","Shape_Length":168.00022837812259,"Shape_Area":979.9983359725917}},{"type":"Feature","id":36,"geometry":{"type":"Polygon","coordinates":[[[-119.20571894359729,40.783222509862924],[-119.20571880374587,40.78326093597148],[-119.20597156758768,40.78326146630806],[-119.20597170847813,40.78322304109971],[-119.20571894359729,40.783222509862924]]]},"properties":{"OBJECTID":36,"class":"man","Shape_Length":167.9996551622349,"Shape_Area":979.9929400013604}},{"type":"Feature","id":37,"geometry":{"type":"Polygon","coordinates":[[[-119.2111749968278,40.78611336796744],[-119.21120904779931,40.78614177232791],[-119.21139589061941,40.786012369577506],[-119.21136184200381,40.78598396437098],[-119.2111749968278,40.78611336796744]]]},"properties":{"OBJECTID":37,"class":"playa","Shape_Length":168.00040213225634,"Shape_Area":980.0228999655562}},{"type":"Feature","id":38,"geometry":{"type":"Polygon","coordinates":[[[-119.1988114891571,40.78769707815941],[-119.19881212134126,40.78773550158876],[-119.19906488233894,40.787733102422486],[-119.19906425237869,40.78769467899467],[-119.1988114891571,40.78769707815941]]]},"properties":{"OBJECTID":38,"class":"temple","Shape_Length":167.9998680690919,"Shape_Area":980.0076078528443}},{"type":"Feature","id":39,"geometry":{"type":"Polygon","coordinates":[[[-119.19439959401296,40.79678364112741],[-119.1942847898729,40.796716996266696],[-119.19425409742799,40.796747532113415],[-119.19436890158975,40.7968141779048],[-119.19439959401296,40.79678364112741]]]},"properties":{"OBJECTID":39,"class":null,"Shape_Length":107.99960896935468,"Shape_Area":559.9928266289676}},{"type":"Feature","id":40,"geometry":{"type":"Polygon","coordinates":[[[-119.18853776491768,40.79173565686251],[-119.18846559649953,40.79164055124794],[-119.1884218003023,40.79165974879606],[-119.1884939674936,40.791754855338],[-119.18853776491768,40.79173565686251]]]},"properties":{"OBJECTID":40,"class":null,"Shape_Length":107.99985693415917,"Shape_Area":559.9964590812863}},{"type":"Feature","id":41,"geometry":{"type":"Polygon","coordinates":[[[-119.20672890924463,40.7986918606797],[-119.20673675778596,40.79859323112123],[-119.20665023281667,40.79858925364083],[-119.20664238533271,40.79868788319353],[-119.20672890924463,40.7986918606797]]]},"properties":{"OBJECTID":41,"class":null,"Shape_Length":120.0001622730864,"Shape_Area":864.0021811423585}},{"type":"Feature","id":42,"geometry":{"type":"Polygon","coordinates":[[[-119.20356075515426,40.800324654908295],[-119.20358526476707,40.80022761739164],[-119.20350013434201,40.800215199947445],[-119.20347562460978,40.8003122374462],[-119.20356075515426,40.800324654908295]]]},"properties":{"OBJECTID":42,"class":null,"Shape_Length":119.99943503188086,"Shape_Area":863.9929345251886}},{"type":"Feature","id":43,"geometry":{"type":"Polygon","coordinates":[[[-119.20142588318001,40.797917291121166],[-119.20146719376396,40.79782360119889],[-119.20138500394536,40.797802670853386],[-119.20134369325885,40.7978963607466],[-119.20142588318001,40.797917291121166]]]},"properties":{"OBJECTID":43,"class":null,"Shape_Length":120.00030586385432,"Shape_Area":864.0046581732859}}]}
