{"type":"FeatureCollection","features":[{"type":"Feature","id":1,"geometry":{"type":"Polygon","coordinates":[[[-119.23741804687332,40.7797103541698],[-119.22499802699686,40.7702499763193],[-119.21258152982396,40.76078824593401],[-119.19691201747042,40.76683720864064],[-119.18123966413327,40.772884036710664],[-119.18667212180613,40.79928839590123],[-119.20403933291034,40.80140599160946],[-119.22140764745997,40.80352097245323],[-119.22941427666288,40.79161595294601],[-119.23741804687332,40.7797103541698]]]},"properties":{"OBJECTID":1,"FID":0}}]}
